#dP2019  3  4  0  0  0.00000000      96 __u+U ITR00 FIT  IAC
## 2043  86400.00000000   900.00000000 58546 0.0000000000000
+   91   C02C05C06C07C08C09C10C11C12C13C14C16E01E02E03E04E05
+        E07E08E09E11E12E13E14E15E18E19E21E24E25E26E27E30E31
+        E33E36G01G02G03G04G05G06G07G08G09G10G11G12G13G14G15
+        G16G17G18G19G20G21G22G23G24G25G26G27G28G29G30G31G32
+        R01R02R03R04R05R07R08R09R10R11R13R14R15R16R17R18R19
+        R20R21R22R23R24R26  0  0  0  0  0  0  0  0  0  0  0
++        11 12  8  8  9  8  8  8  8  8  8  8  5  5  5  6  6
++         5  6  5  6  6  5  5  5  5  6  5  6  6  5  5  5  6
++         6  6  3  4  4  4  3  7  4  4  4  4  3  4  3  4  3
++         4  3  4  3  4  4  4  4  3  4  4  4  4  4  3  4  4
++         6  5  5  5  5  6  5  6  6  5  6  6  5  6  6  5  5
++         5  5  5  6  6  8  0  0  0  0  0  0  0  0  0  0  0
%c M  cc GPS ccc cccc cccc cccc cccc ccccc ccccc ccccc ccccc
%c cc cc ccc ccc cccc cccc cccc cccc ccccc ccccc ccccc ccccc
%f  0.0000000  0.000000000  0.00000000000  0.000000000000000
%f  0.0000000  0.000000000  0.00000000000  0.000000000000000
%i    0    0    0    0      0      0      0      0         0
%i    0    0    0    0      0      0      0      0         0
/*                                                          
/*   RSA / INFORMATION & ANALYSIS CENTER (IAC) OF MCC       
/*   ULTRA-RAPID DETERMINATION                              
/* PCV:IGS14_2038 OL/AL:FES2004  NONE     YN ORB:CoN CLK:CoN
*  2019 03 04 20 30  0.00000000
PC02   4450.340516  41925.521213   1148.299042   -357.064368
PC05  21892.313043  36031.902546   1398.975307    -82.183753
PC06  -8389.459369  35446.635159  21839.689889    485.569177
PC07 -14748.678684  22290.316129 -32571.508184    115.338632
PC08 -24582.561206  32322.011865  10880.565939    122.783802
PC09    226.416922  41277.203950   9639.270282    579.398939
PC10   -878.514440  26023.056872 -32993.875324   -545.254139
PC11 -14916.244615  17406.220655 -15816.512534    -34.801184
PC12 -11785.313568 -12891.814743 -21713.932301    466.424469
PC13 -12963.159411  33280.021467  22274.175336   -574.844053
PC14 -21238.020645  -2330.575274  17987.461281    793.443998
PC16  -5697.546386  36797.472037  19952.124037   -310.665161
PE01 -13682.204648 -15307.651401  21316.605677   -555.135131
PE02  13745.110843  15299.948710 -21297.537900     50.073951
PE03  12569.154267  26791.755388   -227.412233   -140.223402
PE04 -19794.155732 -13795.224714  17150.057124   -233.554082
PE05  -2072.416837  24181.558490  16946.693995     97.316226
PE07  15435.181652  -7439.086095 -24131.220080   -142.887191
PE08  19819.271673  13588.379255 -17275.223071   6394.353065
PE09 -15249.149617   7502.414911  24240.227274   6510.116749
PE11 -21281.462949  16597.481442 -12178.396088   5717.560502
PE12 -17270.304373  -2975.501728 -23846.650410   6299.952480
PE13  21186.623509 -16553.418134  12384.237013    383.771439
PE14 -12306.518695  23757.250889 -15271.004299   6436.165097
PE15  17386.249354   2529.374256  23835.053004    918.222297
PE18   1397.924911 -26376.690090   1472.209184   -578.935629
PE19 -11407.153699 -27258.760401  -1680.811023     -7.967630
PE21   9158.002020 -14959.740391  23838.023750   -522.454739
PE24 -26103.749572   5947.760003 -12613.476232   6202.421098
PE25  -9203.206729  14950.599445 -23830.363912   1875.433444
PE26  12827.219736 -25924.584963  -6277.531928   4835.992913
PE27  26348.605653  -5770.382880  12200.123454    517.195997
PE30  28162.605864   6733.274268  -6191.319156   5059.285795
PE31 -28049.511832  -6790.395271   6579.307539    891.498861
PE33  -3399.295200 -20181.790242 -21366.618535    847.953371
PE36 -12580.167242  26028.221407   6393.146552    740.463297
PG01   7899.903461 -19014.463379 -16768.123981   -174.411033
PG02 -21764.293814  14771.475908  -2286.791523   -155.140490
PG03  -1673.119384 -16745.390865 -20600.055169    185.356975
PG04 -10683.394985 -19857.757831  14045.112259    126.934555
PG05 -18235.044628   6096.805570  18290.079252      1.154747
PG06 -22639.432506   4741.126195 -13031.247969    262.651903
PG07  -6999.243169 -13825.067955  21793.282067     21.236404
PG08   6736.294378 -22296.570263  12622.830827   -134.954016
PG09  -8493.005104 -23465.891498   9032.209884    450.111359
PG10  24261.868462  11033.390926   -829.040303    104.445325
PG11   7149.407864 -24553.915379  -8135.828526   -650.602871
PG12   -830.542492  15949.630788 -21462.906304    262.947923
PG13 -12558.113220  15826.008608  17105.889699    -72.888302
PG14  15063.009848    821.319998 -21555.976269    -89.546659
PG15  -3863.183974  23847.443013  10323.080944   -325.115117
PG16  17325.681871  -4793.879956  19527.022463    -23.157341
PG17 -13318.725452 -11210.692349 -19680.607338     18.559388
PG18  15626.157655 -19660.729904  -8906.121565     31.718975
PG19 -14861.765564  -1108.851139 -22276.776407   -345.969353
PG20  20675.468336  14163.308559   8898.520618    522.788127
PG21  10893.799020  11642.880866  22049.804048   -238.837575
PG22   6706.040237 -14349.549407 -21081.262767   -657.603179
PG23  -1528.666613 -26245.902557  -1202.347635   -195.199142
PG24 -10844.162578  20257.854950 -13188.227885    -62.960751
PG25  11801.288473  17934.936885 -16009.106379   -728.694306
PG26  23615.410434   1175.089593  12257.072793    140.436008
PG27  12089.647773 -13221.349990  19412.407600    -79.415317
PG28 -22455.467018 -14084.313129    788.711113    765.751367
PG29   3504.032875  25862.202238   4915.405708    256.950738
PG30 -17323.927153  -5874.189560  19329.001740    -62.791605
PG31  23458.571365  -5146.939331 -11812.751918     54.471168
PG32  15097.335288   7522.631404 -20498.754356   -197.294800
PR01 -17540.583818 -11019.848277  14896.570747     40.329882
PR02  -8039.650951   7469.372922  23065.555058    357.206124
PR03   5251.964834  19522.711306  15622.218178     -7.989360
PR04  15756.594676  20022.572326  -1388.977286    297.405553
PR05  16820.807521   9431.721815 -16699.000572     23.375871
PR07  -5607.778028 -19672.353240 -15180.420819    -59.142333
PR08 -15490.012979 -20249.484463    751.817891     18.799977
PR09  19437.635026  -8939.145158  13851.862217     57.381158
PR10   4462.183221 -10961.884633  22561.341489     43.956070
PR11 -15179.709667  -7537.579904  19088.147074    -58.627235
PR13 -20381.023149   8601.634348 -12720.470321    -20.845857
PR14  -4359.925534  11254.496329 -22465.953472     36.576837
PR15  14345.952116   7709.510242 -19619.731296    100.398675
PR16  24978.677081   -629.045845  -5468.071039     10.883641
PR17  -7441.341613  23682.346141   5818.152990    209.406804
PR18   2644.234607  16146.408370  19613.416787     34.866754
PR19  11334.734871    -15.826091  22857.186031    -60.784972
PR20  14078.668647 -17647.862665  11836.497771   -370.701058
PR21   7185.271699 -23642.696972  -6362.402609    -34.652224
PR22  -4159.743852 -13923.419182 -20916.145588     -7.711940
PR23 -12911.959099   5363.535996 -21337.701159    213.270324
PR24 -13536.141382  18981.194426 -10394.734007   -177.847051
PR26  13990.373379 -16323.219442  13760.921744     -0.760349
EOF
